43907,ZACUBE-2,2018,92.06,4.0,+,97.1,Active,1,LEO,Russia,South Africa,Civil,Earth Observation,Soyuz,1 43907U 18111AH  24029.44755173  .00108786  00000+0  11153-2 0  9990,2 43907  97.0955 271.1562 0012193  95.9874 264.2776 15.64518884284190,15.64518884,0.0012193,LEO
43908,LUME 1,2018,90.38,2.0,+,97.09,Active,1,LEO,Russia,Spain,Civil/Commercial,Communications,Soyuz,1 43908U 18111AJ  24029.23631362  .00520241  11236-3  13335-2 0  9996,2 43908  97.0921 278.4020 0008451  87.8007 272.4237 15.95224304284652,15.95224304,0.0008451,LEO
43909,YUNHAI 2-01,2018,100.83,-1.0,+,50.01,Active,1,LEO,PRC,China,Government,Earth Observation,Long March,1 43909U 18112A   24029.50834572  .00000286  00000+0  17834-3 0  9990,2 43909  50.0108 133.7116 0000409 153.0299 207.0637 14.28168564266795,14.28168564,4.09e-05,LEO
43910,YUNHAI 2-02,2018,100.83,-1.0,+,50.01,Active,1,LEO,PRC,China,Government,Earth Observation,Long March,1 43910U 18112B   24029.46524716  .00000225  00000+0  15421-3 0  9996,2 43910  50.0106 197.5100 0004970  53.4921 306.6451 14.28180685265908,14.28180685,0.000497,LEO
43911,YUNHAI 2-03,2018,100.83,-1.0,+,50.01,Active,1,LEO,PRC,China,Government,Earth Observation,Long March,1 43911U 18112C   24029.49028701  .00000220  00000+0  15205-3 0  9998,2 43911  50.0134  76.9195 0000771 292.0868  67.9965 14.28182335267587,14.28182335,7.71e-05,LEO
43912,YUNHAI 2-04,2018,100.83,-1.0,+,50.01,Active,1,LEO,PRC,China,Government,Earth Observation,Long March,1 43912U 18112D   24029.46263742  .00000218  00000+0  15120-3 0  9995,2 43912  50.0131  17.1239 0015387 173.9549 186.1554 14.28194973263241,14.28194973,0.0015387,LEO
43913,YUNHAI 2-05,2018,100.83,-1.0,+,50.01,Active,1,LEO,PRC,China,Government,Earth Observation,Long March,1 43913U 18112E   24028.85826000  .00000156  00000+0  12646-3 0  9991,2 43913  50.0073 259.2281 0005030 185.5384 174.5476 14.28158735264738,14.28158735,0.000503,LEO
43914,HONGYAN 1 (CHONGQING),2018,107.16,-1.0,+,50.01,Active,1,LEO,PRC,China,Government,Communications,Long March,1 43914U 18112F   24029.48551790 -.00000110  00000+0  33147-4 0  9994,2 43914  50.0065 195.7208 0006806 128.6889 231.4599 13.43749615249701,13.43749615,0.0006806,LEO
43915,YUNHAI 2-06,2018,100.83,-1.0,+,50.01,Active,1,LEO,PRC,China,Government,Earth Observation,Long March,1 43915U 18112G   24029.36946215  .00000212  00000+0  14917-3 0  9997,2 43915  50.0138 317.6690 0006920 152.9910 207.1366 14.28155875264134,14.28155875,0.000692,LEO
43920,CHINASAT 2D (ZX 2D),2019,1436.11,5200.0,+,0.01,Active,1,GSO,PRC,China,Commercial/Government,Communications,Long March,1 43920U 19001A   24029.41924194 -.00000328  00000+0  00000+0 0  9992,2 43920   0.0270 256.8615 0002164 354.0362 158.1655  1.00270052 18634,1.00270052,0.0002164,GEO
43922,IRIDIUM 180,2019,100.4,860.0,+,86.4,Active,1,LEO,USA,USA,Commercial/Government,Communications,Falcon,1 43922U 19002A   24028.91321778  .00000359  00000+0  12101-3 0  9990,2 43922  86.3996 357.2947 0002269  91.3718 268.7738 14.34217906264255,14.34217906,0.0002269,LEO
43923,IRIDIUM 176,2019,97.81,860.0,+,86.61,Active,1,LEO,USA,USA,Commercial/Government,Communications,Falcon,1 43923U 19002B   24028.90052665  .00001744  00000+0  27273-3 0  9991,2 43923  86.6124 357.3289 0002267  91.6496 268.4981 14.72248912271209,14.72248912,0.0002267,LEO
43924,IRIDIUM 168,2019,100.4,860.0,+,86.4,Active,1,LEO,USA,USA,Commercial/Government,Communications,Falcon,1 43924U 19002C   24029.46503402  .00000070  00000+0  17821-4 0  9994,2 43924  86.4000 357.1167 0002242  90.5089 269.6363 14.34216793264314,14.34216793,0.0002242,LEO
43925,IRIDIUM 173,2019,100.4,860.0,+,86.4,Active,1,LEO,USA,USA,Commercial/Government,Communications,Falcon,1 43925U 19002D   24028.89419392  .00000474  00000+0  16203-3 0  9995,2 43925  86.3997 357.2798 0002264  88.9483 271.1972 14.34216492264212,14.34216492,0.0002264,LEO
43926,IRIDIUM 169,2019,100.1,860.0,+,86.42,Active,1,LEO,USA,USA,Commercial/Government,Communications,Falcon,1 43926U 19002E   24029.45732684  .00000270  00000+0  81899-4 0  9999,2 43926  86.4216  28.6443 0002431  22.3533 337.7771 14.38600286265183,14.38600286,0.0002431,LEO
43927,IRIDIUM 172,2019,100.4,860.0,+,86.4,Active,1,LEO,USA,USA,Commercial/Government,Communications,Falcon,1 43927U 19002F   24028.95762620  .00000341  00000+0  11485-3 0  9999,2 43927  86.3995 357.2584 0002250  89.7758 270.3696 14.34219301264232,14.34219301,0.000225,LEO
43928,IRIDIUM 175,2019,97.81,860.0,+,86.15,Active,1,LEO,USA,USA,Commercial/Government,Communications,Falcon,1 43928U 19002G   24029.37038032  .00001867  00000+0  29212-3 0  9991,2 43928  86.1546 338.1897 0002366  83.0502 277.0983 14.72246578271262,14.72246578,0.0002366,LEO
