[{"OBJECT_NAME":"ZACUBE-2","OBJECT_ID":"2018-111AH","EPOCH":"2024-01-29T10:44:28.469472","MEAN_MOTION":15.64518884,"ECCENTRICITY":0.0012193,"INCLINATION":97.0955,"RA_OF_ASC_NODE":271.1562,"ARG_OF_PERICENTER":95.9874,"MEAN_ANOMALY":264.2776,"EPHEMERIS_TYPE":0,"CLASSIFICATION_TYPE":"U","NORAD_CAT_ID":43907,"ELEMENT_SET_NO":999,"REV_AT_EPOCH":28419,"BSTAR":0.0011153,"MEAN_MOTION_DOT":0.00108786,"MEAN_MOTION_DDOT":0},{"OBJECT_NAME":"LUME 1","OBJECT_ID":"2018-111AJ","EPOCH":"2024-01-29T05:40:17.496768","MEAN_MOTION":15.95224304,"ECCENTRICITY":0.0008451,"INCLINATION":97.0921,"RA_OF_ASC_NODE":278.402,"ARG_OF_PERICENTER":87.8007,"MEAN_ANOMALY":272.4237,"EPHEMERIS_TYPE":0,"CLASSIFICATION_TYPE":"U","NORAD_CAT_ID":43908,"ELEMENT_SET_NO":999,"REV_AT_EPOCH":28465,"BSTAR":0.0013335,"MEAN_MOTION_DOT":0.00520241,"MEAN_MOTION_DDOT":0.00011236},{"OBJECT_NAME":"YUNHAI 2-01","OBJECT_ID":"2018-112A","EPOCH":"2024-01-29T12:12:01.070208","MEAN_MOTION":14.28168564,"ECCENTRICITY":4.09e-5,"INCLINATION":50.0108,"RA_OF_ASC_NODE":133.7116,"ARG_OF_PERICENTER":153.0299,"MEAN_ANOMALY":207.0637,"EPHEMERIS_TYPE":0,"CLASSIFICATION_TYPE":"U","NORAD_CAT_ID":43909,"ELEMENT_SET_NO":999,"REV_AT_EPOCH":26679,"BSTAR":0.00017834,"MEAN_MOTION_DOT":2.86e-6,"MEAN_MOTION_DDOT":0},{"OBJECT_NAME":"YUNHAI 2-02","OBJECT_ID":"2018-112B","EPOCH":"2024-01-29T11:09:57.354624","MEAN_MOTION":14.28180685,"ECCENTRICITY":0.000497,"INCLINATION":50.0106,"RA_OF_ASC_NODE":197.51,"ARG_OF_PERICENTER":53.4921,"MEAN_ANOMALY":306.6451,"EPHEMERIS_TYPE":0,"CLASSIFICATION_TYPE":"U","NORAD_CAT_ID":43910,"ELEMENT_SET_NO":999,"REV_AT_EPOCH":26590,"BSTAR":0.00015421,"MEAN_MOTION_DOT":2.25e-6,"MEAN_MOTION_DDOT":0},{"OBJECT_NAME":"YUNHAI 2-03","OBJECT_ID":"2018-112C","EPOCH":"2024-01-29T11:46:00.797664","MEAN_MOTION":14.28182335,"ECCENTRICITY":7.71e-5,"INCLINATION":50.0134,"RA_OF_ASC_NODE":76.9195,"ARG_OF_PERICENTER":292.0868,"MEAN_ANOMALY":67.9965,"EPHEMERIS_TYPE":0,"CLASSIFICATION_TYPE":"U","NORAD_CAT_ID":43911,"ELEMENT_SET_NO":999,"REV_AT_EPOCH":26758,"BSTAR":0.00015205,"MEAN_MOTION_DOT":2.2e-6,"MEAN_MOTION_DDOT":0},{"OBJECT_NAME":"YUNHAI 2-04","OBJECT_ID":"2018-112D","EPOCH":"2024-01-29T11:06:11.873088","MEAN_MOTION":14.28194973,"ECCENTRICITY":0.0015387,"INCLINATION":50.0131,"RA_OF_ASC_NODE":17.1239,"ARG_OF_PERICENTER":173.9549,"MEAN_ANOMALY":186.1554,"EPHEMERIS_TYPE":0,"CLASSIFICATION_TYPE":"U","NORAD_CAT_ID":43912,"ELEMENT_SET_NO":999,"REV_AT_EPOCH":26324,"BSTAR":0.0001512,"MEAN_MOTION_DOT":2.18e-6,"MEAN_MOTION_DDOT":0},{"OBJECT_NAME":"YUNHAI 2-05","OBJECT_ID":"2018-112E","EPOCH":"2024-01-28T20:35:53.664000","MEAN_MOTION":14.28158735,"ECCENTRICITY":0.000503,"INCLINATION":50.0073,"RA_OF_ASC_NODE":259.2281,"ARG_OF_PERICENTER":185.5384,"MEAN_ANOMALY":174.5476,"EPHEMERIS_TYPE":0,"CLASSIFICATION_TYPE":"U","NORAD_CAT_ID":43913,"ELEMENT_SET_NO":999,"REV_AT_EPOCH":26473,"BSTAR":0.00012646,"MEAN_MOTION_DOT":1.56e-6,"MEAN_MOTION_DDOT":0},{"OBJECT_NAME":"HONGYAN 1 (CHONGQING)","OBJECT_ID":"2018-112F","EPOCH":"2024-01-29T11:39:08.746560","MEAN_MOTION":13.43749615,"ECCENTRICITY":0.0006806,"INCLINATION":50.0065,"RA_OF_ASC_NODE":195.7208,"ARG_OF_PERICENTER":128.6889,"MEAN_ANOMALY":231.4599,"EPHEMERIS_TYPE":0,"CLASSIFICATION_TYPE":"U","NORAD_CAT_ID":43914,"ELEMENT_SET_NO":999,"REV_AT_EPOCH":24970,"BSTAR":3.3147e-5,"MEAN_MOTION_DOT":-1.1e-6,"MEAN_MOTION_DDOT":0},{"OBJECT_NAME":"YUNHAI 2-06","OBJECT_ID":"2018-112G","EPOCH":"2024-01-29T08:52:01.529760","MEAN_MOTION":14.28155875,"ECCENTRICITY":0.000692,"INCLINATION":50.0138,"RA_OF_ASC_NODE":317.669,"ARG_OF_PERICENTER":152.991,"MEAN_ANOMALY":207.1366,"EPHEMERIS_TYPE":0,"CLASSIFICATION_TYPE":"U","NORAD_CAT_ID":43915,"ELEMENT_SET_NO":999,"REV_AT_EPOCH":26413,"BSTAR":0.00014917,"MEAN_MOTION_DOT":2.12e-6,"MEAN_MOTION_DDOT":0},{"OBJECT_NAME":"CHINASAT 2D (ZX 2D)","OBJECT_ID":"2019-001A","EPOCH":"2024-01-29T10:03:42.503616","MEAN_MOTION":1.00270052,"ECCENTRICITY":0.0002164,"INCLINATION":0.027,"RA_OF_ASC_NODE":256.8615,"ARG_OF_PERICENTER":354.0362,"MEAN_ANOMALY":158.1655,"EPHEMERIS_TYPE":0,"CLASSIFICATION_TYPE":"U","NORAD_CAT_ID":43920,"ELEMENT_SET_NO":999,"REV_AT_EPOCH":1863,"BSTAR":0,"MEAN_MOTION_DOT":-3.28e-6,"MEAN_MOTION_DDOT":0},{"OBJECT_NAME":"IRIDIUM 180","OBJECT_ID":"2019-002A","EPOCH":"2024-01-28T21:55:02.016192","MEAN_MOTION":14.34217906,"ECCENTRICITY":0.0002269,"INCLINATION":86.3996,"RA_OF_ASC_NODE":357.2947,"ARG_OF_PERICENTER":91.3718,"MEAN_ANOMALY":268.7738,"EPHEMERIS_TYPE":0,"CLASSIFICATION_TYPE":"U","NORAD_CAT_ID":43922,"ELEMENT_SET_NO":999,"REV_AT_EPOCH":26425,"BSTAR":0.00012101,"MEAN_MOTION_DOT":3.59e-6,"MEAN_MOTION_DDOT":0},{"OBJECT_NAME":"IRIDIUM 176","OBJECT_ID":"2019-002B","EPOCH":"2024-01-28T21:36:45.502560","MEAN_MOTION":14.72248912,"ECCENTRICITY":0.0002267,"INCLINATION":86.6124,"RA_OF_ASC_NODE":357.3289,"ARG_OF_PERICENTER":91.6496,"MEAN_ANOMALY":268.4981,"EPHEMERIS_TYPE":0,"CLASSIFICATION_TYPE":"U","NORAD_CAT_ID":43923,"ELEMENT_SET_NO":999,"REV_AT_EPOCH":27120,"BSTAR":0.00027273,"MEAN_MOTION_DOT":1.744e-5,"MEAN_MOTION_DDOT":0},{"OBJECT_NAME":"IRIDIUM 168","OBJECT_ID":"2019-002C","EPOCH":"2024-01-29T11:09:38.939328","MEAN_MOTION":14.34216793,"ECCENTRICITY":0.0002242,"INCLINATION":86.4,"RA_OF_ASC_NODE":357.1167,"ARG_OF_PERICENTER":90.5089,"MEAN_ANOMALY":269.6363,"EPHEMERIS_TYPE":0,"CLASSIFICATION_TYPE":"U","NORAD_CAT_ID":43924,"ELEMENT_SET_NO":999,"REV_AT_EPOCH":26431,"BSTAR":1.7821e-5,"MEAN_MOTION_DOT":7.0e-7,"MEAN_MOTION_DDOT":0},{"OBJECT_NAME":"IRIDIUM 173","OBJECT_ID":"2019-002D","EPOCH":"2024-01-28T21:27:38.354688","MEAN_MOTION":14.34216492,"ECCENTRICITY":0.0002264,"INCLINATION":86.3997,"RA_OF_ASC_NODE":357.2798,"ARG_OF_PERICENTER":88.9483,"MEAN_ANOMALY":271.1972,"EPHEMERIS_TYPE":0,"CLASSIFICATION_TYPE":"U","NORAD_CAT_ID":43925,"ELEMENT_SET_NO":999,"REV_AT_EPOCH":26421,"BSTAR":0.00016203,"MEAN_MOTION_DOT":4.74e-6,"MEAN_MOTION_DDOT":0},{"OBJECT_NAME":"IRIDIUM 169","OBJECT_ID":"2019-002E","EPOCH":"2024-01-29T10:58:33.038976","MEAN_MOTION":14.38600286,"ECCENTRICITY":0.0002431,"INCLINATION":86.4216,"RA_OF_ASC_NODE":28.6443,"ARG_OF_PERICENTER":22.3533,"MEAN_ANOMALY":337.7771,"EPHEMERIS_TYPE":0,"CLASSIFICATION_TYPE":"U","NORAD_CAT_ID":43926,"ELEMENT_SET_NO":999,"REV_AT_EPOCH":26518,"BSTAR":8.1899e-5,"MEAN_MOTION_DOT":2.7e-6,"MEAN_MOTION_DDOT":0},{"OBJECT_NAME":"IRIDIUM 172","OBJECT_ID":"2019-002F","EPOCH":"2024-01-28T22:58:58.903680","MEAN_MOTION":14.34219301,"ECCENTRICITY":0.000225,"INCLINATION":86.3995,"RA_OF_ASC_NODE":357.2584,"ARG_OF_PERICENTER":89.7758,"MEAN_ANOMALY":270.3696,"EPHEMERIS_TYPE":0,"CLASSIFICATION_TYPE":"U","NORAD_CAT_ID":43927,"ELEMENT_SET_NO":999,"REV_AT_EPOCH":26423,"BSTAR":0.00011485,"MEAN_MOTION_DOT":3.41e-6,"MEAN_MOTION_DDOT":0},{"OBJECT_NAME":"IRIDIUM 175","OBJECT_ID":"2019-002G","EPOCH":"2024-01-29T08:53:20.859648","MEAN_MOTION":14.72246578,"ECCENTRICITY":0.0002366,"INCLINATION":86.1546,"RA_OF_ASC_NODE":338.1897,"ARG_OF_PERICENTER":83.0502,"MEAN_ANOMALY":277.0983,"EPHEMERIS_TYPE":0,"CLASSIFICATION_TYPE":"U","NORAD_CAT_ID":43928,"ELEMENT_SET_NO":999,"REV_AT_EPOCH":27126,"BSTAR":0.00029212,"MEAN_MOTION_DOT":1.867e-5,"MEAN_MOTION_DDOT":0}]
